[{"OBJECT_NAME":"KUIPER-00087","OBJECT_ID":"2025-151T","EPOCH":"2026-03-09T21:11:23.913888","MEAN_MOTION":14.79928134,"ECCENTRICITY":4.769e-5,"INCLINATION":51.8991,"RA_OF_ASC_NODE":279.7259,"ARG_OF_PERICENTER":48.0062,"MEAN_ANOMALY":312.094,"EPHEMERIS_TYPE":0,"CLASSIFICATION_TYPE":"U","NORAD_CAT_ID":64833,"ELEMENT_SET_NO":999,"REV_AT_EPOCH":3560,"BSTAR":-4.0476451e-5,"MEAN_MOTION_DOT":-5.3e-6,"MEAN_MOTION_DDOT":0},{"OBJECT_NAME":"RESURS O1 DEB","OBJECT_ID":"1994-074F","EPOCH":"2026-03-09T18:35:07.024704","MEAN_MOTION":14.57544379,"ECCENTRICITY":0.01230629,"INCLINATION":97.8275,"RA_OF_ASC_NODE":139.7797,"ARG_OF_PERICENTER":111.4939,"MEAN_ANOMALY":5.2581,"EPHEMERIS_TYPE":0,"CLASSIFICATION_TYPE":"U","NORAD_CAT_ID":23347,"ELEMENT_SET_NO":999,"REV_AT_EPOCH":65558,"BSTAR":0.00037934267,"MEAN_MOTION_DOT":1.868e-5,"MEAN_MOTION_DDOT":0}]
